NORAD_CAT_ID,OBJECT_NAME,OBJECT_TYPE,EPOCH,MEAN_MOTION,ECCENTRICITY,INCLINATION,RA_OF_ASC_NODE,ARG_OF_PERICENTER,MEAN_ANOMALY,BSTAR,MEAN_MOTION_DOT,MEAN_MOTION_DDOT,TLE_LINE0,TLE_LINE1,TLE_LINE2,SEMIMAJOR_AXIS,PERIOD,APOGEE,PERIGEE,DECAYED
53714.0,STARLINK-4688,PAYLOAD,2022-11-29 22:00:00,15.73124586,0.0008751,53.2135,208.387,277.3945,120.3803,0.00062735,0.00088245,0.0,0 STARLINK-4688,1 53714U 22107Q   22333.91667824  .00088245  00000-0  62735-3 0  9991,2 53714  53.2135 208.3870 0008751 277.3945 120.3803 15.73124586  1300,6728.11,91.538,355.86300000000006,344.087,0.0
53714.0,STARLINK-4688,PAYLOAD,2022-11-30 06:00:00,15.73269046,0.0008761,53.2131,206.7373,277.1958,209.4323,-0.00033637,-0.0004783,0.0,0 STARLINK-4688,1 53714U 22107Q   22334.25001157 -.00047830  00000-0 -33637-3 0  9996,2 53714  53.2131 206.7373 0008761 277.1958 209.4323 15.73269046 13680,6727.698,91.529,355.457,343.6690000000001,0.0
53714.0,STARLINK-4688,PAYLOAD,2022-11-30 14:00:01,15.73198926,0.0008812999999999,53.2135,205.0857,275.1096,300.5855,0.00064476,0.00091035,0.0,0 STARLINK-4688,1 53714U 22107Q   22334.58335648  .00091035  00000-0  64476-3 0  9996,2 53714  53.2135 205.0857 0008813 275.1096 300.5855 15.73198926  1309,6727.898,91.533,355.6930000000001,343.834,0.0
53714.0,STARLINK-4688,PAYLOAD,2022-11-30 22:00:00,15.73338761,0.0008782999999999,53.2151,203.4384,276.0796,28.5034,-0.0020256,-0.00278222,0.0,0 STARLINK-4688,1 53714U 22107Q   22334.91667824 -.00278222  00000-0 -20256-2 0  9991,2 53714  53.2151 203.4384 0008783 276.0796  28.5034 15.73338761 13781,6727.5,91.525,355.273,343.456,0.0
53714.0,STARLINK-4688,PAYLOAD,2022-12-01 06:00:00,15.73244002,0.000889,53.2141,201.7884,276.5756,116.9441,-0.00074068,-0.00103785,0.0,0 STARLINK-4688,1 53714U 22107Q   22335.25001157 -.00103785  00000-0 -74068-3 0  9992,2 53714  53.2141 201.7884 0008890 276.5756 116.9441 15.73244002 13841,6727.77,91.531,355.616,343.654,0.0
53714.0,STARLINK-4688,PAYLOAD,2022-12-01 14:00:01,15.73188045,0.0008818999999999,53.214,200.1372,275.3703,207.1287,0.00066919,0.00094502,0.0,0 STARLINK-4688,1 53714U 22107Q   22335.58334491  .00094502  00000-0  66919-3 0  9998,2 53714  53.2140 200.1372 0008819 275.3703 207.1287 15.73188045  1308,6727.929,91.534,355.728,343.861,0.0
53714.0,STARLINK-4688,PAYLOAD,2022-12-01 22:00:00,15.7326677,0.0008777,53.2138,198.4896,277.3389,294.0958,-0.0004986,-0.00070404,0.0,0 STARLINK-4688,1 53714U 22107Q   22335.91667824 -.00070404  00000-0 -49860-3 0  9997,2 53714  53.2138 198.4896 0008777 277.3389 294.0958 15.73266770 13945,6727.705,91.529,355.475,343.665,0.0
53714.0,STARLINK-4688,PAYLOAD,2022-12-02 14:00:01,15.73197538,0.0008725,53.2135,195.1885,275.7335,113.5979,-0.00011301,-0.00016498,0.0,0 STARLINK-4688,1 53714U 22107Q   22336.58334491 -.00016498  00000-0 -11301-3 0  9994,2 53714  53.2135 195.1885 0008725 275.7335 113.5979 15.73197538  1300,6727.901999999999,91.533,355.63699999999994,343.897,0.0
53714.0,STARLINK-4688,PAYLOAD,2022-12-02 22:00:00,15.73234283,0.0008887,53.2136,193.541,277.4919,200.7775,-0.00038963,-0.00055179,0.0,0 STARLINK-4688,1 53714U 22107Q   22336.91667824 -.00055179  00000-0 -38963-3 0  9992,2 53714  53.2136 193.5410 0008887 277.4919 200.7775 15.73234283  1305,6727.797,91.531,355.641,343.68300000000005,0.0
53714.0,STARLINK-4688,PAYLOAD,2022-12-03 14:00:01,15.73200377,0.0008872999999999,53.2139,190.2398,276.6761,19.4929,0.00013014,0.00017713,0.0,0 STARLINK-4688,1 53714U 22107Q   22337.58334491  .00017713  00000-0  13014-3 0  9997,2 53714  53.2139 190.2398 0008873 276.6761  19.4929 15.73200377  1301,6727.894,91.533,355.72900000000016,343.789,0.0
53714.0,STARLINK-4688,PAYLOAD,2022-12-03 22:00:00,15.732386600000002,0.0008897,53.2136,188.5923,278.4217,106.6817,-0.00050433,-0.0007112,0.0,0 STARLINK-4688,1 53714U 22107Q   22337.91667824 -.00071120  00000-0 -50433-3 0  9993,2 53714  53.2136 188.5923 0008897 278.4217 106.6817 15.73238660  1305,6727.785,91.531,355.636,343.664,0.0
53714.0,STARLINK-4688,PAYLOAD,2022-12-04 06:00:00,15.73220196,0.0008925,53.213,186.9417,277.5995,196.4434,-0.00053534,-0.00075359,0.0,0 STARLINK-4688,1 53714U 22107Q   22338.25001157 -.00075359  00000-0 -53534-3 0  9995,2 53714  53.2130 186.9417 0008925 277.5995 196.4434 15.73220196 14316,6727.8380000000025,91.532,355.707,343.6980000000001,0.0
53714.0,STARLINK-4688,PAYLOAD,2022-12-04 14:00:01,15.73146778,0.0008888,53.2132,185.2913,276.237,286.7311,0.0005127999999999,0.00071952,0.0,0 STARLINK-4688,1 53714U 22107Q   22338.58334491  .00071952  00000-0  51280-3 0  9990,2 53714  53.2132 185.2913 0008888 276.2370 286.7311 15.73146778  1307,6728.047,91.536,355.892,343.932,0.0
53714.0,STARLINK-4688,PAYLOAD,2022-12-04 22:00:00,15.73182622,0.0008925,53.2132,183.6439,279.2888,12.5764,0.00046172,0.00064768,0.0,0 STARLINK-4688,1 53714U 22107Q   22338.91667824  .00064768  00000-0  46172-3 0  9997,2 53714  53.2132 183.6439 0008925 279.2888  12.5764 15.73182622  1306,6727.945,91.534,355.814,343.805,0.0
53714.0,STARLINK-4688,PAYLOAD,2022-12-05 14:00:01,15.73249227,0.0008789,53.2143,180.3425,278.315,191.5163,-0.00020732,-0.0002976,0.0,0 STARLINK-4688,1 53714U 22107Q   22339.58335648 -.00029760  00000-0 -20732-3 0  9996,2 53714  53.2143 180.3425 0008789 278.3150 191.5163 15.73249227 14521,6727.755,91.53,355.533,343.707,0.0
53714.0,STARLINK-4688,PAYLOAD,2022-12-05 19:38:02,15.73226993,0.0008833,53.2144,179.1812,281.5574,78.4455,9.5913e-05,0.00012895,0.0,0 STARLINK-4688,1 53714U 22107Q   22339.81808158  .00012895  00000-0  95913-4 0  9996,2 53714  53.2144 179.1812 0008833 281.5574  78.4455 15.73226993 15000,6727.818,91.532,355.626,343.741,0.0
53714.0,STARLINK-4688,PAYLOAD,2022-12-06 13:55:48,15.73199973,0.0008407,53.2139,175.4083,282.7907,77.2174,-7.4147e-06,-1.675e-05,0.0,0 STARLINK-4688,1 53714U 22107Q   22340.58042343 -.00001675  00000-0 -74147-5 0  9991,2 53714  53.2139 175.4083 0008407 282.7907  77.2174 15.73199973 15128,6727.895,91.533,355.416,344.10400000000016,0.0
53714.0,STARLINK-4688,PAYLOAD,2022-12-06 20:01:44,15.73187898,0.0009008,53.2144,174.1505,282.3997,77.6014,-3.0886e-05,-4.974e-05,0.0,0 STARLINK-4688,1 53714U 22107Q   22340.83454023 -.00004974  00000-0 -30886-4 0  9997,2 53714  53.2144 174.1505 0009008 282.3997  77.6014 15.73187898 15166,6727.93,91.534,355.855,343.7340000000001,0.0
53714.0,STARLINK-4688,PAYLOAD,2022-12-06 21:33:13,15.73184488,0.0008619,53.2145,173.8358,278.6091,81.3953,-4.213e-05,-6.551e-05,0.0,0 STARLINK-4688,1 53714U 22107Q   22340.89806921 -.00006551  00000-0 -42130-4 0  9999,2 53714  53.2145 173.8358 0008619 278.6091  81.3953 15.73184488 14737,6727.939,91.534,355.603,344.006,0.0
53714.0,STARLINK-4688,PAYLOAD,2022-12-07 00:36:10,15.73203057,0.0008832,53.2144,173.2072,280.5066,79.4958,1.0203e-05,8.02e-06,0.0,0 STARLINK-4688,1 53714U 22107Q   22341.02512069  .00000802  00000-0  10203-4 0  9999,2 53714  53.2144 173.2072 0008832 280.5066  79.4958 15.73203057 14753,6727.886,91.533,355.694,343.809,0.0
53714.0,STARLINK-4688,PAYLOAD,2022-12-07 18:53:56,15.73193295,0.0009021,53.2143,169.4354,283.2961,76.7052,3.4858000000000004e-05,4.272e-05,0.0,0 STARLINK-4688,1 53714U 22107Q   22341.78746442  .00004272  00000-0  34858-4 0  9993,2 53714  53.2143 169.4354 0009021 283.2961  76.7052 15.73193295 14877,6727.9140000000025,91.534,355.849,343.71,0.0
53714.0,STARLINK-4688,PAYLOAD,2022-12-08 13:11:41,15.73238153,0.0009038,53.2139,165.6625,281.849,78.1516,0.00010518,0.00014213,0.0,0 STARLINK-4688,1 53714U 22107Q   22342.54978248  .00014213  00000-0  10518-3 0  9991,2 53714  53.2139 165.6625 0009038 281.8490  78.1516 15.73238153 15437,6727.786,91.531,355.732,343.571,0.0
53714.0,STARLINK-4688,PAYLOAD,2022-12-08 19:17:38,15.73119036,0.000822,53.2146,164.4062,275.705,84.3033,-0.00031929,-0.00045145,0.0,0 STARLINK-4688,1 53714U 22107Q   22342.80392073 -.00045145  00000-0 -31929-3 0  9995,2 53714  53.2146 164.4062 0008220 275.7050  84.3033 15.73119036 15478,6728.126,91.538,355.522,344.46,0.0
53714.0,STARLINK-4688,PAYLOAD,2022-12-09 13:36:18,15.71759143,0.0007441,53.2144,160.637,276.5196,83.4976,-0.0034406,-0.00433144,0.0,0 STARLINK-4688,1 53714U 22107Q   22343.56688422 -.00433144  00000-0 -34406-2 0  9997,2 53714  53.2144 160.6370 0007441 276.5196  83.4976 15.71759143 15158,6732.005999999999,91.617,358.881,348.862,0.0
53714.0,STARLINK-4688,PAYLOAD,2022-12-09 13:36:20,15.71670787,0.00074,53.2145,160.6388,274.4587,85.5587,-0.0037593,-0.00469448,0.0,0 STARLINK-4688,1 53714U 22107Q   22343.56690430 -.00469448  00000-0 -37593-2 0  9995,2 53714  53.2145 160.6388 0007400 274.4587  85.5587 15.71670787 15599,6732.259,91.622,359.105,349.142,0.0
53714.0,STARLINK-4688,PAYLOAD,2022-12-09 21:14:23,15.71175275,0.0006098,53.2143,159.0692,284.0088,76.0253,-0.003935,-0.00480201,0.0,0 STARLINK-4688,1 53714U 22107Q   22343.88499811 -.00480201  00000-0 -39350-2 0  9993,2 53714  53.2143 159.0692 0006098 284.0088  76.0253 15.71175275 15207,6733.674,91.651,359.645,351.43300000000005,0.0
53714.0,STARLINK-4688,PAYLOAD,2022-12-11 20:39:51,15.66389797,0.0001312,53.2144,149.3662,72.0854,288.0306,-0.0057592,-0.0056927,0.0,0 STARLINK-4688,1 53714U 22107Q   22345.86101307 -.00569270  00000-0 -57592-2 0  9995,2 53714  53.2144 149.3662 0001312  72.0854 288.0306 15.66389797 15515,6747.382,91.931,370.132,368.361,0.0
53714.0,STARLINK-4688,PAYLOAD,2022-12-12 01:15:40,15.6599196,0.0001234,53.2145,148.4303,73.4862,286.629,-0.0055508,-0.0054172,0.0,0 STARLINK-4688,1 53714U 22107Q   22346.05254742 -.00541720  00000-0 -55508-2 0  9994,2 53714  53.2145 148.4303 0001234  73.4862 286.6290 15.65991960 15544,6748.524,91.954,371.222,369.557,0.0
53714.0,STARLINK-4688,PAYLOAD,2022-12-12 22:00:00,15.62934442,0.0001405,53.2172,144.2119,53.536,134.6591,-0.013503,-0.01127677,0.0,0 STARLINK-4688,1 53714U 22107Q   22346.91667824 -.01127677  00000-0 -13503-1 0  9998,2 53714  53.2172 144.2119 0001405  53.5360 134.6591 15.62934442  1309,6757.323,92.134,380.137,378.23800000000006,0.0
